NORAD_CAT_ID,OBJECT_NAME,OBJECT_TYPE,EPOCH,MEAN_MOTION,ECCENTRICITY,INCLINATION,RA_OF_ASC_NODE,ARG_OF_PERICENTER,MEAN_ANOMALY,BSTAR,MEAN_MOTION_DOT,MEAN_MOTION_DDOT,TLE_LINE0,TLE_LINE1,TLE_LINE2,SEMIMAJOR_AXIS,PERIOD,APOGEE,PERIGEE,DECAYED
54780.0,STARLINK-5449,PAYLOAD,2024-05-21 19:19:50,15.08849159,0.0001297,53.2173,97.8844,119.0339,241.0783,2.4335e-06,-2.49e-06,0.0,0 STARLINK-5449,1 54780U 22175Y   24142.80544483 -.00000249  00000-0  24335-5 0  9998,2 54780  53.2173  97.8844 0001297 119.0339 241.0783 15.08849159 78800,6917.852,95.437,540.615,538.82,0.0
54780.0,STARLINK-5449,PAYLOAD,2024-05-22 03:16:46,15.08843965,0.000131,53.2175,96.4026,83.4799,276.6343,2.5365e-05,1.16e-06,0.0,0 STARLINK-5449,1 54780U 22175Y   24143.13664812  .00000116  00000-0  25365-4 0  9999,2 54780  53.2175  96.4026 0001310  83.4799 276.6343 15.08843965 78859,6917.868,95.437,540.64,538.827,0.0
54780.0,STARLINK-5449,PAYLOAD,2024-05-22 06:27:32,15.08847874,0.0001287,53.217,95.8048,86.5975,273.5164,2.4686e-05,1.05e-06,0.0,0 STARLINK-5449,1 54780U 22175Y   24143.26912477  .00000105  00000-0  24686-4 0  9999,2 54780  53.2170  95.8048 0001287  86.5975 273.5164 15.08847874 81038,6917.856,95.437,540.612,538.831,0.0
54780.0,STARLINK-5449,PAYLOAD,2024-05-23 03:07:33,15.08833271,0.000137,53.2186,91.9345,85.4352,274.6796,4.1029e-05,3.65e-06,0.0,0 STARLINK-5449,1 54780U 22175Y   24144.13025404  .00000365  00000-0  41029-4 0  9999,2 54780  53.2186  91.9345 0001370  85.4352 274.6796 15.08833271 79005,6917.901,95.438,540.714,538.818,0.0
54780.0,STARLINK-5449,PAYLOAD,2024-05-23 06:18:20,15.08829072,0.000132,53.2173,91.3451,88.4277,271.6866,1.5383e-06,-2.63e-06,0.0,0 STARLINK-5449,1 54780U 22175Y   24144.26273830 -.00000263  00000-0  15383-5 0  9994,2 54780  53.2173  91.3451 0001320  88.4277 271.6866 15.08829072 81188,6917.914,95.438,540.692,538.866,0.0
54780.0,STARLINK-5449,PAYLOAD,2024-05-24 01:22:57,15.08843259,0.0001707,53.2177,87.7834,55.6049,304.5105,0.0001021,1.337e-05,0.0,0 STARLINK-5449,1 54780U 22175Y   24145.05760964  .00001337  00000-0  10210-3 0  9995,2 54780  53.2177  87.7834 0001707  55.6049 304.5105 15.08843259 79146,6917.87,95.437,540.916,538.555,0.0
54780.0,STARLINK-5449,PAYLOAD,2024-05-24 06:09:06,15.08847517,0.0001724,53.2184,86.8803,102.5949,257.5236,0.00012326,1.675e-05,0.0,0 STARLINK-5449,1 54780U 22175Y   24145.25632250  .00001675  00000-0  12326-3 0  9998,2 54780  53.2184  86.8803 0001724 102.5949 257.5236 15.08847517 81337,6917.857,95.437,540.915,538.53,0.0
54780.0,STARLINK-5449,PAYLOAD,2024-05-24 20:27:35,15.08832893,6.27e-05,53.2184,84.2121,128.1608,231.9441,2.8852e-05,1.72e-06,0.0,0 STARLINK-5449,1 54780U 22175Y   24145.85249150  .00000172  00000-0  28852-4 0  9990,2 54780  53.2184  84.2121 0000627 128.1608 231.9441 15.08832893 79263,6917.902,95.438,540.201,539.333,0.0
54780.0,STARLINK-5449,PAYLOAD,2024-05-25 02:49:08,15.08822695,0.0001312,53.2176,83.024,111.6511,248.462,-5.21e-05,-1.117e-05,0.0,0 STARLINK-5449,1 54780U 22175Y   24146.11746256 -.00001117  00000-0 -52100-4 0  9994,2 54780  53.2176  83.0240 0001312 111.6511 248.4620 15.08822695 79301,6917.933,95.439,540.706,538.891,0.0
54780.0,STARLINK-5449,PAYLOAD,2024-05-25 12:21:27,15.08829323,0.0001345,53.2174,81.2382,114.907,245.2062,6.8798e-05,8.07e-06,0.0,0 STARLINK-5449,1 54780U 22175Y   24146.51489791  .00000807  00000-0  68798-4 0  9999,2 54780  53.2174  81.2382 0001345 114.9070 245.2062 15.08829323 79364,6917.913,95.438,540.708,538.848,0.0
54780.0,STARLINK-5449,PAYLOAD,2024-05-26 04:15:17,15.08848667,0.0001258,53.2175,78.2637,106.8979,253.2151,-4.9165e-05,-1.07e-05,0.0,0 STARLINK-5449,1 54780U 22175Y   24147.17729059 -.00001070  00000-0 -49165-4 0  9998,2 54780  53.2175  78.2637 0001258 106.8979 253.2151 15.08848667 79466,6917.854,95.437,540.589,538.849,0.0
54780.0,STARLINK-5449,PAYLOAD,2024-05-27 04:06:05,15.08831222,0.0001285,53.2178,73.8038,112.5581,247.5547,0.0002101,3.057e-05,0.0,0 STARLINK-5449,1 54780U 22175Y   24148.17089646  .00003057  00000-0  21010-3 0  9993,2 54780  53.2178  73.8038 0001285 112.5581 247.5547 15.08831222 79619,6917.907,95.438,540.661,538.883,0.0
54780.0,STARLINK-5449,PAYLOAD,2024-05-28 11:53:48,15.08839921,0.0001224,53.2182,67.8521,101.6706,258.4424,4.5574e-05,4.38e-06,0.0,0 STARLINK-5449,1 54780U 22175Y   24149.49569774  .00000438  00000-0  45574-4 0  9996,2 54780  53.2182  67.8521 0001224 101.6706 258.4424 15.08839921 79816,6917.881,95.438,540.592,538.899,0.0
54780.0,STARLINK-5449,PAYLOAD,2024-05-29 03:47:39,15.08844401,0.0001194,53.2176,64.8788,101.0569,259.0557,4.6705e-05,4.56e-06,0.0,0 STARLINK-5449,1 54780U 22175Y   24150.15809358  .00000456  00000-0  46705-4 0  9993,2 54780  53.2176  64.8788 0001194 101.0569 259.0557 15.08844401 82073,6917.867,95.437,540.558,538.906,0.0
54780.0,STARLINK-5449,PAYLOAD,2024-05-29 22:52:16,15.08844326,0.0001125,53.2171,61.3098,92.2106,267.9015,6.5284e-05,7.51e-06,0.0,0 STARLINK-5449,1 54780U 22175Y   24150.95297213  .00000751  00000-0  65284-4 0  9993,2 54780  53.2171  61.3098 0001125  92.2106 267.9015 15.08844326 82192,6917.867,95.437,540.51,538.954,0.0
54780.0,STARLINK-5449,PAYLOAD,2024-05-30 03:38:26,15.08844228,0.0001131,53.2172,60.4188,94.9071,265.2051,6.1118e-05,6.85e-06,0.0,0 STARLINK-5449,1 54780U 22175Y   24151.15169180  .00000685  00000-0  61118-4 0  9995,2 54780  53.2172  60.4188 0001131  94.9071 265.2051 15.08844228 80066,6917.867,95.437,540.515,538.95,0.0
54780.0,STARLINK-5449,PAYLOAD,2024-05-30 21:07:40,15.08842452,0.0001212,53.2176,57.1475,103.1639,256.9488,2.4048e-05,9.5e-07,0.0,0 STARLINK-5449,1 54780U 22175Y   24151.88033303  .00000095  00000-0  24048-4 0  9998,2 54780  53.2176  57.1475 0001212 103.1639 256.9488 15.08842452 82335,6917.873,95.437,540.576,538.899,0.0
54780.0,STARLINK-5449,PAYLOAD,2024-05-31 03:29:13,15.08841595,0.0001286,53.2179,55.9587,111.993,248.1198,1.6263e-05,-2.9e-07,0.0,0 STARLINK-5449,1 54780U 22175Y   24152.14529301 -.00000029  00000-0  16263-4 0  9994,2 54780  53.2179  55.9587 0001286 111.9930 248.1198 15.08841595 82372,6917.876,95.437,540.63,538.851,0.0
54780.0,STARLINK-5449,PAYLOAD,2024-05-31 20:58:27,15.08840928,0.0001453,53.219,52.6897,101.9272,258.1883,6.231e-05,7.04e-06,0.0,0 STARLINK-5449,1 54780U 22175Y   24152.87393111  .00000704  00000-0  62310-4 0  9995,2 54780  53.2190  52.6897 0001453 101.9272 258.1883 15.08840928 80321,6917.878,95.437,540.748,538.737,0.0
54780.0,STARLINK-5449,PAYLOAD,2024-05-31 22:33:50,15.08839443,0.0001234,53.2192,52.393,103.3404,256.7725,8.3867e-05,1.047e-05,0.0,0 STARLINK-5449,1 54780U 22175Y   24152.94017089  .00001047  00000-0  83867-4 0  9991,2 54780  53.2192  52.3930 0001234 103.3404 256.7725 15.08839443 82497,6917.882,95.438,540.601,538.893,0.0
54780.0,STARLINK-5449,PAYLOAD,2024-06-01 09:41:32,15.088497,0.0001442,53.2199,50.3123,98.9765,261.1391,7.4766e-05,9.02e-06,0.0,0 STARLINK-5449,1 54780U 22175Y   24153.40384422  .00000902  00000-0  74766-4 0  9998,2 54780  53.2199  50.3123 0001442  98.9765 261.1391 15.08849700 80401,6917.851,95.437,540.713,538.718,0.0
54780.0,STARLINK-5449,PAYLOAD,2024-06-01 20:49:15,15.08823296,0.0001349,53.219,48.2308,96.3533,263.7613,-2.6768e-05,-7.14e-06,0.0,0 STARLINK-5449,1 54780U 22175Y   24153.86754614 -.00000714  00000-0 -26768-4 0  9994,2 54780  53.2190  48.2308 0001349  96.3533 263.7613 15.08823296 80478,6917.931,95.439,540.73,538.863,0.0
54780.0,STARLINK-5449,PAYLOAD,2024-06-02 09:32:20,15.08840553,0.0001348,53.2195,45.854,96.4986,263.616,2.2821e-05,7.5e-07,0.0,0 STARLINK-5449,1 54780U 22175Y   24154.39745634  .00000075  00000-0  22821-4 0  9999,2 54780  53.2195  45.8540 0001348  96.4986 263.6160 15.08840553 80556,6917.879,95.438,540.676,538.811,0.0
54780.0,STARLINK-5449,PAYLOAD,2024-06-02 17:29:16,15.08836355,0.000168,53.2194,44.3656,88.7271,271.3913,-1.6788e-05,-5.55e-06,0.0,0 STARLINK-5449,1 54780U 22175Y   24154.72866343 -.00000555  00000-0 -16788-4 0  9997,2 54780  53.2194  44.3656 0001680  88.7271 271.3913 15.08836355 80600,6917.892,95.438,540.919,538.594,0.0
54780.0,STARLINK-5449,PAYLOAD,2024-06-03 09:23:07,15.08841625,0.0001781,53.2191,41.3911,87.0536,273.066,1.1776e-05,-1.01e-06,0.0,0 STARLINK-5449,1 54780U 22175Y   24155.39106133 -.00000101  00000-0  11776-4 0  9993,2 54780  53.2191  41.3911 0001781  87.0536 273.0660 15.08841625 82860,6917.875,95.437,540.972,538.508,0.0
54780.0,STARLINK-5449,PAYLOAD,2024-06-04 01:16:59,15.08835729,0.000177,53.2169,38.4162,79.2582,280.8609,0.00013186,1.811e-05,0.0,0 STARLINK-5449,1 54780U 22175Y   24156.05346531  .00001811  00000-0  13186-3 0  9999,2 54780  53.2169  38.4162 0001770  79.2582 280.8609 15.08835729 80801,6917.893,95.438,540.983,538.534,0.0
54780.0,STARLINK-5449,PAYLOAD,2024-06-04 09:13:54,15.08851947,0.0002011,53.2177,36.9291,72.39,287.7312,0.00016381,2.321e-05,0.0,0 STARLINK-5449,1 54780U 22175Y   24156.38465510  .00002321  00000-0  16381-3 0  9991,2 54780  53.2177  36.9291 0002011  72.3900 287.7312 15.08851947 80855,6917.844,95.437,541.1,538.318,0.0
54780.0,STARLINK-5449,PAYLOAD,2024-06-04 21:57:01,15.08822699,0.000108,53.2178,34.5507,80.3447,279.7667,-3.783e-05,-8.89e-06,0.0,0 STARLINK-5449,1 54780U 22175Y   24156.91459811 -.00000889  00000-0 -37830-4 0  9999,2 54780  53.2178  34.5507 0001080  80.3447 279.7667 15.08822699 83095,6917.933,95.439,540.545,539.051,0.0
54780.0,STARLINK-5449,PAYLOAD,2024-06-04 23:32:23,15.08832836,0.0001257,53.2187,34.2544,71.3276,288.7852,4.173e-05,3.76e-06,0.0,0 STARLINK-5449,1 54780U 22175Y   24156.98083046  .00000376  00000-0  41730-4 0  9992,2 54780  53.2187  34.2544 0001257  71.3276 288.7852 15.08832836 80940,6917.902,95.438,540.637,538.898,0.0
54780.0,STARLINK-5449,PAYLOAD,2024-06-05 09:04:41,15.08853405,0.000145,53.22,32.4688,86.8113,273.3045,0.00016791,2.386e-05,0.0,0 STARLINK-5449,1 54780U 22175Y   24157.37825243  .00002386  00000-0  16791-3 0  9990,2 54780  53.2200  32.4688 0001450  86.8113 273.3045 15.08853405 81008,6917.839,95.437,540.708,538.701,0.0
